ALOS (DAICHI)           
1 28931U 06002A   26093.14611827  .00002358  00000+0  40239-3 0  9999
2 28931  98.1259  48.9863 0001115 114.0829 246.0494 14.69889995 77078
H-2A R/B                
1 28932U 06002B   26093.15171241  .00018645  00000+0  91299-3 0  9990
2 28932  98.2461 242.2961 0052444 157.6038 202.7500 15.17001945 98142
RESURS-DK 1             
1 29228U 06021A   26093.26451161  .00004044  00000+0  23520-3 0  9994
2 29228  69.9335 173.4523 0001864  38.1251 322.0047 15.12899949 91245
CZ-4B R/B               
1 29507U 06046C   26093.08054565  .00008958  00000+0  44817-3 0  9998
2 29507  97.5538 137.9213 0033224 180.3936 179.7277 15.17164139 63740
CZ-2C R/B               
1 31114U 07010B   26093.24258128  .00000233  00000+0  12609-3 0  9998
2 31114  98.4004 205.2939 0058281 221.9282 137.7426 14.20255831983200
COSMO-SKYMED 1          
1 31598U 07023A   26093.26830365  .00006742  00000+0  59500-3 0  9991
2 31598  97.8867 284.5012 0001487 102.1062 258.0326 14.96724623 18589
COSMOS 2428             
1 31792U 07029A   26093.24216551  .00000006  00000+0  29019-4 0  9996
2 31792  70.9424 151.8127 0009695 251.5868 108.4199 14.12948921967565
SL-16 R/B               
1 31793U 07029B   26093.24196209 -.00000076  00000+0 -14816-4 0  9992
2 31793  70.9741 120.7753 0002882 277.1858 163.4670 14.14843953968840
KORONAS-FOTON           
1 33504U 09003A   26092.87892502  .00024158  00000+0  52707-3 0  9990
2 33504  82.4279 250.7135 0011520  70.9796 289.2698 15.44014391949478
CZ-2C R/B               
1 37731U 11030B   26092.40010832  .00002051  00000+0  26404-3 0  9999
2 37731  97.8585  49.1963 0050969 273.4339 202.0439 14.81307565793602
H-2A R/B                
1 38341U 12025E   26093.15398655  .00004240  00000+0  38359-3 0  9991
2 38341  98.4774  62.1686 0043145 231.8787 127.8539 14.95343810751873
SHIJIAN-16 (SJ-16)      
1 39358U 13057A   26093.29852002  .00001519  00000+0  15073-3 0  9996
2 39358  74.9715 138.5019 0015320  48.6505 311.5998 14.92437702675170
SL-4 R/B                
1 39679U 14021B   26092.71021321  .00023478  00000+0  50080-3 0  9997
2 39679  51.6056 220.0209 0094675 190.5616 169.3382 15.40065411659978
ALOS-2                  
1 39766U 14029A   26093.13423900  .00000218  00000+0  36025-4 0  9999
2 39766  97.9197 191.3762 0001873 101.9153 258.2269 14.79449708640482
YAOGAN-29               
1 41038U 15069A   26093.28664822  .00000555  00000+0  74948-4 0  9995
2 41038  98.0103 121.7784 0000053 291.4724  68.6484 14.83022027559527
ASTRO-H (HITOMI)        
1 41337U 16012A   26092.95861177  .00004679  00000+0  27381-3 0  9990
2 41337  30.9992 199.9149 0009659 215.9579 144.0410 15.10165628555904
