[{"OBJECT_NAME":"ALOS (DAICHI)","OBJECT_ID":"2006-002A","EPOCH":"2026-04-03T03:30:24.618528","MEAN_MOTION":14.69889995,"ECCENTRICITY":0.00011155,"INCLINATION":98.1259,"RA_OF_ASC_NODE":48.9863,"ARG_OF_PERICENTER":114.0829,"MEAN_ANOMALY":246.0494,"EPHEMERIS_TYPE":0,"CLASSIFICATION_TYPE":"U","NORAD_CAT_ID":28931,"ELEMENT_SET_NO":999,"REV_AT_EPOCH":7707,"BSTAR":0.00040238858,"MEAN_MOTION_DOT":2.358e-5,"MEAN_MOTION_DDOT":0},{"OBJECT_NAME":"H-2A R/B","OBJECT_ID":"2006-002B","EPOCH":"2026-04-03T03:38:27.952224","MEAN_MOTION":15.17001945,"ECCENTRICITY":0.00524441,"INCLINATION":98.2461,"RA_OF_ASC_NODE":242.2961,"ARG_OF_PERICENTER":157.6038,"MEAN_ANOMALY":202.75,"EPHEMERIS_TYPE":0,"CLASSIFICATION_TYPE":"U","NORAD_CAT_ID":28932,"ELEMENT_SET_NO":999,"REV_AT_EPOCH":9814,"BSTAR":0.00091299352,"MEAN_MOTION_DOT":0.00018645,"MEAN_MOTION_DDOT":0},{"OBJECT_NAME":"RESURS-DK 1","OBJECT_ID":"2006-021A","EPOCH":"2026-04-03T06:20:53.803104","MEAN_MOTION":15.12899949,"ECCENTRICITY":0.00018644,"INCLINATION":69.9335,"RA_OF_ASC_NODE":173.4523,"ARG_OF_PERICENTER":38.1251,"MEAN_ANOMALY":322.0047,"EPHEMERIS_TYPE":0,"CLASSIFICATION_TYPE":"U","NORAD_CAT_ID":29228,"ELEMENT_SET_NO":999,"REV_AT_EPOCH":9124,"BSTAR":0.00023519851,"MEAN_MOTION_DOT":4.044e-5,"MEAN_MOTION_DDOT":0},{"OBJECT_NAME":"CZ-4B R/B","OBJECT_ID":"2006-046C","EPOCH":"2026-04-03T01:55:59.144160","MEAN_MOTION":15.17164139,"ECCENTRICITY":0.00332249,"INCLINATION":97.5538,"RA_OF_ASC_NODE":137.9213,"ARG_OF_PERICENTER":180.3936,"MEAN_ANOMALY":179.7277,"EPHEMERIS_TYPE":0,"CLASSIFICATION_TYPE":"U","NORAD_CAT_ID":29507,"ELEMENT_SET_NO":999,"REV_AT_EPOCH":6374,"BSTAR":0.00044817132,"MEAN_MOTION_DOT":8.958e-5,"MEAN_MOTION_DDOT":0},{"OBJECT_NAME":"CZ-2C R/B","OBJECT_ID":"2007-010B","EPOCH":"2026-04-03T05:49:19.022592","MEAN_MOTION":14.20255831,"ECCENTRICITY":0.00582817,"INCLINATION":98.4004,"RA_OF_ASC_NODE":205.2939,"ARG_OF_PERICENTER":221.9282,"MEAN_ANOMALY":137.7426,"EPHEMERIS_TYPE":0,"CLASSIFICATION_TYPE":"U","NORAD_CAT_ID":31114,"ELEMENT_SET_NO":999,"REV_AT_EPOCH":98320,"BSTAR":0.00012608619,"MEAN_MOTION_DOT":2.33e-6,"MEAN_MOTION_DDOT":0},{"OBJECT_NAME":"COSMO-SKYMED 1","OBJECT_ID":"2007-023A","EPOCH":"2026-04-03T06:26:21.435360","MEAN_MOTION":14.96724623,"ECCENTRICITY":0.00014877,"INCLINATION":97.8867,"RA_OF_ASC_NODE":284.5012,"ARG_OF_PERICENTER":102.1062,"MEAN_ANOMALY":258.0326,"EPHEMERIS_TYPE":0,"CLASSIFICATION_TYPE":"U","NORAD_CAT_ID":31598,"ELEMENT_SET_NO":999,"REV_AT_EPOCH":1858,"BSTAR":0.00059500438,"MEAN_MOTION_DOT":6.742e-5,"MEAN_MOTION_DDOT":0},{"OBJECT_NAME":"COSMOS 2428","OBJECT_ID":"2007-029A","EPOCH":"2026-04-03T05:48:43.100064","MEAN_MOTION":14.12948921,"ECCENTRICITY":0.00096955,"INCLINATION":70.9424,"RA_OF_ASC_NODE":151.8127,"ARG_OF_PERICENTER":251.5868,"MEAN_ANOMALY":108.4199,"EPHEMERIS_TYPE":0,"CLASSIFICATION_TYPE":"U","NORAD_CAT_ID":31792,"ELEMENT_SET_NO":999,"REV_AT_EPOCH":96756,"BSTAR":2.901933e-5,"MEAN_MOTION_DOT":6.0e-8,"MEAN_MOTION_DDOT":0},{"OBJECT_NAME":"SL-16 R/B","OBJECT_ID":"2007-029B","EPOCH":"2026-04-03T05:48:25.524576","MEAN_MOTION":14.14843953,"ECCENTRICITY":0.00028825,"INCLINATION":70.9741,"RA_OF_ASC_NODE":120.7753,"ARG_OF_PERICENTER":277.1858,"MEAN_ANOMALY":163.467,"EPHEMERIS_TYPE":0,"CLASSIFICATION_TYPE":"U","NORAD_CAT_ID":31793,"ELEMENT_SET_NO":999,"REV_AT_EPOCH":96884,"BSTAR":-1.4815635e-5,"MEAN_MOTION_DOT":-7.6e-7,"MEAN_MOTION_DDOT":0},{"OBJECT_NAME":"KORONAS-FOTON","OBJECT_ID":"2009-003A","EPOCH":"2026-04-02T21:05:39.121728","MEAN_MOTION":15.44014391,"ECCENTRICITY":0.00115202,"INCLINATION":82.4279,"RA_OF_ASC_NODE":250.7135,"ARG_OF_PERICENTER":70.9796,"MEAN_ANOMALY":289.2698,"EPHEMERIS_TYPE":0,"CLASSIFICATION_TYPE":"U","NORAD_CAT_ID":33504,"ELEMENT_SET_NO":999,"REV_AT_EPOCH":94947,"BSTAR":0.00052707156,"MEAN_MOTION_DOT":0.00024158,"MEAN_MOTION_DDOT":0},{"OBJECT_NAME":"CZ-2C R/B","OBJECT_ID":"2011-030B","EPOCH":"2026-04-02T09:36:09.358848","MEAN_MOTION":14.81307565,"ECCENTRICITY":0.00509691,"INCLINATION":97.8585,"RA_OF_ASC_NODE":49.1963,"ARG_OF_PERICENTER":273.4339,"MEAN_ANOMALY":202.0439,"EPHEMERIS_TYPE":0,"CLASSIFICATION_TYPE":"U","NORAD_CAT_ID":37731,"ELEMENT_SET_NO":999,"REV_AT_EPOCH":79360,"BSTAR":0.00026404357,"MEAN_MOTION_DOT":2.051e-5,"MEAN_MOTION_DDOT":0},{"OBJECT_NAME":"H-2A R/B","OBJECT_ID":"2012-025E","EPOCH":"2026-04-03T03:41:44.437920","MEAN_MOTION":14.9534381,"ECCENTRICITY":0.00431459,"INCLINATION":98.4774,"RA_OF_ASC_NODE":62.1686,"ARG_OF_PERICENTER":231.8787,"MEAN_ANOMALY":127.8539,"EPHEMERIS_TYPE":0,"CLASSIFICATION_TYPE":"U","NORAD_CAT_ID":38341,"ELEMENT_SET_NO":999,"REV_AT_EPOCH":75187,"BSTAR":0.00038359427,"MEAN_MOTION_DOT":4.24e-5,"MEAN_MOTION_DDOT":0},{"OBJECT_NAME":"SHIJIAN-16 (SJ-16)","OBJECT_ID":"2013-057A","EPOCH":"2026-04-03T07:09:52.129728","MEAN_MOTION":14.92437702,"ECCENTRICITY":0.00153208,"INCLINATION":74.9715,"RA_OF_ASC_NODE":138.5019,"ARG_OF_PERICENTER":48.6505,"MEAN_ANOMALY":311.5998,"EPHEMERIS_TYPE":0,"CLASSIFICATION_TYPE":"U","NORAD_CAT_ID":39358,"ELEMENT_SET_NO":999,"REV_AT_EPOCH":67517,"BSTAR":0.0001507257,"MEAN_MOTION_DOT":1.519e-5,"MEAN_MOTION_DDOT":0},{"OBJECT_NAME":"SL-4 R/B","OBJECT_ID":"2014-021B","EPOCH":"2026-04-02T17:02:42.421344","MEAN_MOTION":15.40065411,"ECCENTRICITY":0.00946758,"INCLINATION":51.6056,"RA_OF_ASC_NODE":220.0209,"ARG_OF_PERICENTER":190.5616,"MEAN_ANOMALY":169.3382,"EPHEMERIS_TYPE":0,"CLASSIFICATION_TYPE":"U","NORAD_CAT_ID":39679,"ELEMENT_SET_NO":999,"REV_AT_EPOCH":65997,"BSTAR":0.00050080395,"MEAN_MOTION_DOT":0.00023478,"MEAN_MOTION_DDOT":0},{"OBJECT_NAME":"ALOS-2","OBJECT_ID":"2014-029A","EPOCH":"2026-04-03T03:13:18.249600","MEAN_MOTION":14.79449708,"ECCENTRICITY":0.00018735,"INCLINATION":97.9197,"RA_OF_ASC_NODE":191.3762,"ARG_OF_PERICENTER":101.9153,"MEAN_ANOMALY":258.2269,"EPHEMERIS_TYPE":0,"CLASSIFICATION_TYPE":"U","NORAD_CAT_ID":39766,"ELEMENT_SET_NO":999,"REV_AT_EPOCH":64048,"BSTAR":3.6025367e-5,"MEAN_MOTION_DOT":2.18e-6,"MEAN_MOTION_DDOT":0},{"OBJECT_NAME":"YAOGAN-29","OBJECT_ID":"2015-069A","EPOCH":"2026-04-03T06:52:46.406208","MEAN_MOTION":14.83022027,"ECCENTRICITY":5.36e-6,"INCLINATION":98.0103,"RA_OF_ASC_NODE":121.7784,"ARG_OF_PERICENTER":291.4724,"MEAN_ANOMALY":68.6484,"EPHEMERIS_TYPE":0,"CLASSIFICATION_TYPE":"U","NORAD_CAT_ID":41038,"ELEMENT_SET_NO":999,"REV_AT_EPOCH":55952,"BSTAR":7.494823e-5,"MEAN_MOTION_DOT":5.55e-6,"MEAN_MOTION_DDOT":0},{"OBJECT_NAME":"ASTRO-H (HITOMI)","OBJECT_ID":"2016-012A","EPOCH":"2026-04-02T23:00:24.056928","MEAN_MOTION":15.10165628,"ECCENTRICITY":0.00096592,"INCLINATION":30.9992,"RA_OF_ASC_NODE":199.9149,"ARG_OF_PERICENTER":215.9579,"MEAN_ANOMALY":144.041,"EPHEMERIS_TYPE":0,"CLASSIFICATION_TYPE":"U","NORAD_CAT_ID":41337,"ELEMENT_SET_NO":999,"REV_AT_EPOCH":55590,"BSTAR":0.00027380662,"MEAN_MOTION_DOT":4.679e-5,"MEAN_MOTION_DDOT":0}]
